OBJECT_NAME,OBJECT_ID,EPOCH,MEAN_MOTION,ECCENTRICITY,INCLINATION,RA_OF_ASC_NODE,ARG_OF_PERICENTER,MEAN_ANOMALY,EPHEMERIS_TYPE,CLASSIFICATION_TYPE,NORAD_CAT_ID,ELEMENT_SET_NO,REV_AT_EPOCH,BSTAR,MEAN_MOTION_DOT,MEAN_MOTION_DDOT
STARLINK-37028,2026-055J,2026-07-07T05:30:09.184608,15.34401168,.00012904,53.1568,123.2673,72.5265,287.5879,0,U,68270,999,1824,.49933923E-3,.16533E-3,0
STARLINK-37029,2026-055K,2026-07-08T02:46:14.672640,15.34347205,.0001463,53.1579,117.4208,110.6725,249.4435,0,U,68271,999,1840,-.37175E-3,-.12894E-3,0
STARLINK-36974,2026-055L,2026-07-08T03:14:20.740128,15.34426434,.0001332,53.1578,119.7030,76.8181,283.2970,0,U,68272,999,1837,.45249E-3,.14955E-3,0
STARLINK-37019,2026-055M,2026-07-07T05:08:15.548640,15.34425447,.00008232,53.1565,121.7481,133.0247,227.0824,0,U,68273,999,1826,.10268653E-2,.34506E-3,0
STARLINK-37129,2026-055N,2026-07-07T22:47:16.406880,15.34414757,.0001609,53.1568,118.5142,135.7567,224.3564,0,U,68274,999,1837,.5786E-3,.19232E-3,0
STARLINK-37123,2026-055P,2026-07-08T04:53:21.864192,15.34424953,.0001611,53.1577,117.2555,33.2523,326.8580,0,U,68275,999,1841,.63573E-3,.21181E-3,0
STARLINK-37125,2026-055Q,2026-07-07T05:23:23.192736,15.34407647,.00013955,53.1576,121.8099,99.7606,260.3554,0,U,68276,999,1826,.58399867E-3,.19411E-3,0
STARLINK-36989,2026-055R,2026-07-08T04:38:12.595776,15.34412024,.0001288,53.1576,117.1745,80.2815,279.8333,0,U,68277,999,1841,.27881E-3,.9059E-4,0
STARLINK-36982,2026-055S,2026-07-07T05:14:18.298176,15.34453204,.00013931,53.1580,121.7772,124.6013,235.5121,0,U,68278,999,1826,.12393665E-2,.41802E-3,0
STARLINK-36934,2026-055T,2026-07-08T03:13:29.912736,15.34397530,.0001948,53.1584,117.5368,143.1343,216.9793,0,U,68279,999,1840,.77101E-3,.25762E-3,0
STARLINK-37070,2026-055U,2026-07-08T03:55:47.044416,15.34383387,.0001265,53.1562,116.9841,96.0546,264.0601,0,U,68280,999,1841,.66632E-3,.22191E-3,0
STARLINK-37134,2026-055V,2026-07-07T23:09:11.058048,15.34413184,.0001025,53.1567,120.0336,100.7660,259.3457,0,U,68281,999,1835,.47995E-3,.15881E-3,0
STARLINK-37160,2026-055W,2026-07-08T04:23:04.269984,15.34420761,.0002986,53.1578,117.1045,67.4667,292.6652,0,U,68282,999,1841,.45041E-3,.14882E-3,0
STARLINK-37124,2026-055X,2026-07-07T23:18:16.204032,15.34412232,.000137,53.1561,120.0671,50.6934,309.4190,0,U,68283,999,1835,.49151E-3,.16273E-3,0
STARLINK-37159,2026-055Y,2026-07-07T05:12:05.909184,15.34407145,.0000537,53.1582,123.9197,116.6702,243.4356,0,U,68284,999,1823,.89719841E-3,.30066E-3,0
STARLINK-36725,2026-055Z,2026-07-07T23:27:22.359168,15.34392492,.0001636,53.1573,120.1031,131.1045,229.0099,0,U,68285,999,1835,.44249E-3,.146E-3,0
STARLINK-36998,2026-055AA,2026-07-08T04:13:58.386144,15.34417815,.0001704,53.1590,117.0645,75.4025,284.7167,0,U,68286,999,1842,.52909E-3,.17552E-3,0
STARLINK-37165,2026-055AB,2026-07-07T23:23:29.383296,15.34395504,.0001311,53.1564,117.9399,104.8666,255.2482,0,U,68287,999,1838,.5528E-3,.18344E-3,0
STARLINK-37016,2026-055AC,2026-07-07T22:50:17.972160,15.34428518,.0001652,53.1561,118.5297,121.7892,238.3272,0,U,68288,999,1837,.41034E-3,.13525E-3,0
STARLINK-37010,2026-055AD,2026-07-07T22:44:14.452800,15.34417903,.0001751,53.1564,118.4815,112.7889,247.3299,0,U,68289,999,1837,.51407E-3,.17042E-3,0
STARLINK-37151,2026-055AE,2026-07-07T05:17:20.846688,15.34433328,.00010248,53.1576,121.7899,109.2652,250.8462,0,U,68290,999,1826,.1094444E-2,.36822E-3,0
STRIX-6,2026-056A,2026-07-08T04:13:07.195008,15.00308189,.0016568,50.2818,250.5717,324.2852,35.6988,0,U,68291,999,1642,.15374E-3,.1687E-4,0
STARLINK-37107,2026-057A,2026-07-07T21:40:25.572000,15.33464034,.0003587,97.2836,315.3907,187.6154,172.5034,0,U,68294,999,1708,.36489E-3,.11732E-3,0
STARLINK-37147,2026-057B,2026-07-07T21:44:21.159744,15.33459866,.0001632,97.2843,315.3818,73.9469,286.1954,0,U,68295,999,1708,.69198E-3,.22342E-3,0
STARLINK-37142,2026-057C,2026-07-07T21:24:46.914624,15.33448296,.0003042,97.2837,315.4079,93.7042,266.4548,0,U,68296,999,1708,.69666E-3,.22488E-3,0
STARLINK-37115,2026-057D,2026-07-07T20:53:26.834208,15.33431269,.0001064,97.2851,315.2861,162.2176,197.9104,0,U,68297,999,1707,.28333E-3,.9079E-4,0
STARLINK-36355,2026-057E,2026-07-08T03:05:24.495072,15.33440507,.0001882,97.2857,315.5407,71.4330,288.7117,0,U,68298,999,1711,.96022E-4,.3026E-4,0
STARLINK-37118,2026-057F,2026-07-07T20:57:23.075136,15.33448395,.0002711,97.2851,315.2785,70.2429,289.9106,0,U,68299,999,1707,.43149E-3,.13883E-3,0
STARLINK-36875,2026-057G,2026-07-07T22:15:40.392576,15.33443771,.0001357,97.2848,315.3611,86.3225,273.8173,0,U,68300,999,1708,-.70274E-4,-.2343E-4,0
STARLINK-37099,2026-057H,2026-07-07T22:19:34.545216,15.33472672,.0002194,97.2825,315.3540,175.9210,184.2051,0,U,68301,999,1708,.41347E-3,.13309E-3,0
