STARLINK-37028          
1 68270U 26055J   26188.22927297  .00016533  00000+0  49934-3 0  9995
2 68270  53.1568 123.2673 0001290  72.5265 287.5879 15.34401168 18240
STARLINK-37029          
1 68271U 26055K   26189.11544760 -.00012894  00000+0 -37175-3 0  9997
2 68271  53.1579 117.4208 0001463 110.6725 249.4435 15.34347205 18403
STARLINK-36974          
1 68272U 26055L   26189.13496227  .00014955  00000+0  45249-3 0  9993
2 68272  53.1578 119.7030 0001332  76.8181 283.2970 15.34426434 18373
STARLINK-37019          
1 68273U 26055M   26188.21406885  .00034506  00000+0  10269-2 0  9990
2 68273  53.1565 121.7481 0000823 133.0247 227.0824 15.34425447 18261
STARLINK-37129          
1 68274U 26055N   26188.94949545  .00019232  00000+0  57860-3 0  9994
2 68274  53.1568 118.5142 0001609 135.7567 224.3564 15.34414757 18375
STARLINK-37123          
1 68275U 26055P   26189.20372528  .00021181  00000+0  63573-3 0  9990
2 68275  53.1577 117.2555 0001611  33.2523 326.8580 15.34424953 18417
STARLINK-37125          
1 68276U 26055Q   26188.22457399  .00019411  00000+0  58400-3 0  9998
2 68276  53.1576 121.8099 0001395  99.7606 260.3554 15.34407647 18266
STARLINK-36989          
1 68277U 26055R   26189.19320134  .00009059  00000+0  27881-3 0  9998
2 68277  53.1576 117.1745 0001288  80.2815 279.8333 15.34412024 18413
STARLINK-36982          
1 68278U 26055S   26188.21826734  .00041802  00000+0  12394-2 0  9992
2 68278  53.1580 121.7772 0001393 124.6013 235.5121 15.34453204 18262
STARLINK-36934          
1 68279U 26055T   26189.13437399  .00025762  00000+0  77101-3 0  9995
2 68279  53.1584 117.5368 0001948 143.1343 216.9793 15.34397530 18402
STARLINK-37070          
1 68280U 26055U   26189.16373894  .00022191  00000+0  66632-3 0  9999
2 68280  53.1562 116.9841 0001265  96.0546 264.0601 15.34383387 18410
STARLINK-37134          
1 68281U 26055V   26188.96471132  .00015881  00000+0  47995-3 0  9990
2 68281  53.1567 120.0336 0001025 100.7660 259.3457 15.34413184 18353
STARLINK-37160          
1 68282U 26055W   26189.18268831  .00014882  00000+0  45041-3 0  9996
2 68282  53.1578 117.1045 0002986  67.4667 292.6652 15.34420761 18416
STARLINK-37124          
1 68283U 26055X   26188.97102088  .00016273  00000+0  49151-3 0  9996
2 68283  53.1561 120.0671 0001370  50.6934 309.4190 15.34412232 18355
STARLINK-37159          
1 68284U 26055Y   26188.21673506  .00030066  00000+0  89720-3 0  9994
2 68284  53.1582 123.9197 0000537 116.6702 243.4356 15.34407145 18239
STARLINK-36725          
1 68285U 26055Z   26188.97734212  .00014600  00000+0  44249-3 0  9993
2 68285  53.1573 120.1031 0001636 131.1045 229.0099 15.34392492 18354
STARLINK-36998          
1 68286U 26055AA  26189.17637021  .00017552  00000+0  52909-3 0  9998
2 68286  53.1590 117.0645 0001704  75.4025 284.7167 15.34417815 18423
STARLINK-37165          
1 68287U 26055AB  26188.97464564  .00018344  00000+0  55280-3 0  9991
2 68287  53.1564 117.9399 0001311 104.8666 255.2482 15.34395504 18380
STARLINK-37016          
1 68288U 26055AC  26188.95159690  .00013525  00000+0  41034-3 0  9999
2 68288  53.1561 118.5297 0001652 121.7892 238.3272 15.34428518 18379
STARLINK-37010          
1 68289U 26055AD  26188.94738950  .00017042  00000+0  51407-3 0  9994
2 68289  53.1564 118.4815 0001751 112.7889 247.3299 15.34417903 18379
STARLINK-37151          
1 68290U 26055AE  26188.22038017  .00036822  00000+0  10944-2 0  9991
2 68290  53.1576 121.7899 0001024 109.2652 250.8462 15.34433328 18263
STRIX-6                 
1 68291U 26056A   26189.17577772  .00001687  00000+0  15374-3 0  9998
2 68291  50.2818 250.5717 0016568 324.2852  35.6988 15.00308189 16428
STARLINK-37107          
1 68294U 26057A   26188.90307375  .00011732  00000+0  36489-3 0  9994
2 68294  97.2836 315.3907 0003587 187.6154 172.5034 15.33464034 17080
STARLINK-37147          
1 68295U 26057B   26188.90580046  .00022342  00000+0  69198-3 0  9995
2 68295  97.2843 315.3818 0001632  73.9469 286.1954 15.33459866 17085
STARLINK-37142          
1 68296U 26057C   26188.89220966  .00022488  00000+0  69666-3 0  9997
2 68296  97.2837 315.4079 0003042  93.7042 266.4548 15.33448296 17088
STARLINK-37115          
1 68297U 26057D   26188.87044947  .00009079  00000+0  28333-3 0  9996
2 68297  97.2851 315.2861 0001064 162.2176 197.9104 15.33431269 17071
STARLINK-36355          
1 68298U 26057E   26189.12875573  .00003026  00000+0  96022-4 0  9990
2 68298  97.2857 315.5407 0001882  71.4330 288.7117 15.33440507 17111
STARLINK-37118          
1 68299U 26057F   26188.87318374  .00013883  00000+0  43149-3 0  9996
2 68299  97.2851 315.2785 0002711  70.2429 289.9106 15.33448395 17079
STARLINK-36875          
1 68300U 26057G   26188.92755084 -.00002343  00000+0 -70274-4 0  9999
2 68300  97.2848 315.3611 0001357  86.3225 273.8173 15.33443771 17084
STARLINK-37099          
1 68301U 26057H   26188.93026094  .00013309  00000+0  41347-3 0  9993
2 68301  97.2825 315.3540 0002194 175.9210 184.2051 15.33472672 17082
